IRIDIUM 26              
1 24903U 97043A   25316.55421237  .00000921  00000+0  30243-3 0  9993
2 24903  86.3978  48.2449 0001966  90.4989 269.6433 14.37290506478057
IRIDIUM 22              
1 24907U 97043E   25316.67694213  .00000838  00000+0  28132-3 0  9997
2 24907  86.3977  51.8605 0001999  96.0281 264.1144 14.36088465478087
DUMMY MASS 1            
1 24925U 97048A   25316.59396758  .00000986  00000+0  10664-3 0  9991
2 24925  86.3346  66.6529 0006237   1.3637 358.7603 14.87141249527182
DUMMY MASS 2            
1 24926U 97048B   25316.58089433  .00000992  00000+0  10794-3 0  9991
2 24926  86.3344  68.2946 0007461  10.4425 349.6953 14.86891876526956
IRIDIUM 29              
1 24944U 97051A   25316.78558248  .00001085  00000+0  36232-3 0  9991
2 24944  86.3937  81.5193 0002158  97.5038 262.6404 14.36620043474600
IRIDIUM 33              
1 24946U 97051C   25316.58336157  .00000754  00000+0  25810-3 0  9996
2 24946  86.3854  80.8785 0006465 325.9888  34.0893 14.35003412474028
IRIDIUM 28              
1 24948U 97051E   25316.59572850  .00000970  00000+0  31747-3 0  9997
2 24948  86.3945  79.0288 0001714  80.0718 280.0673 14.37521972475165
IRIDIUM 36              
1 24967U 97056C   25315.97905877  .00000752  00000+0  24367-3 0  9991
2 24967  86.3933 110.9206 0001789  89.8223 270.3180 14.37739229473459
